[{"OBJECT_NAME":"STARLINK-35135","OBJECT_ID":"2025-210H","EPOCH":"2026-03-09T23:06:59.058720","MEAN_MOTION":15.30197797,"ECCENTRICITY":9.846e-5,"INCLINATION":53.1613,"RA_OF_ASC_NODE":305.7579,"ARG_OF_PERICENTER":92.0819,"MEAN_ANOMALY":268.0294,"EPHEMERIS_TYPE":0,"CLASSIFICATION_TYPE":"U","NORAD_CAT_ID":65629,"ELEMENT_SET_NO":999,"REV_AT_EPOCH":2777,"BSTAR":0.0005981416,"MEAN_MOTION_DOT":0.00017396,"MEAN_MOTION_DDOT":0},{"OBJECT_NAME":"SSB","OBJECT_ID":"1983-008F","EPOCH":"2026-03-09T21:08:45.677472","MEAN_MOTION":13.7788279,"ECCENTRICITY":0.07173194,"INCLINATION":63.3089,"RA_OF_ASC_NODE":291.2453,"ARG_OF_PERICENTER":133.9599,"MEAN_ANOMALY":232.2962,"EPHEMERIS_TYPE":0,"CLASSIFICATION_TYPE":"U","NORAD_CAT_ID":13845,"ELEMENT_SET_NO":999,"REV_AT_EPOCH":33121,"BSTAR":0.00054392684,"MEAN_MOTION_DOT":3.983e-5,"MEAN_MOTION_DDOT":0}]
